NORAD_CAT_ID,OBJECT_NAME,OBJECT_TYPE,EPOCH,MEAN_MOTION,ECCENTRICITY,INCLINATION,RA_OF_ASC_NODE,ARG_OF_PERICENTER,MEAN_ANOMALY,BSTAR,MEAN_MOTION_DOT,MEAN_MOTION_DDOT,TLE_LINE0,TLE_LINE1,TLE_LINE2,SEMIMAJOR_AXIS,PERIOD,APOGEE,PERIGEE,DECAYED
50842.0,STARLINK-3302,PAYLOAD,2022-03-10 20:00:01,15.26672721,0.0001861,53.2176,253.4719,35.6406,35.8938,-0.026871,-0.00662894,0.0,0 STARLINK-3302,1 50842U 22001AR  22069.83334491 -.00662894  00000-0 -26871-1 0  9990,2 50842  53.2176 253.4719 0001861  35.6406  35.8938 15.26672721 11148,6863.904,94.323,487.047,484.492,0.0
50842.0,STARLINK-3302,PAYLOAD,2022-03-10 22:00:01,15.26551368,0.0001946,53.2176,253.0875,37.4163,132.42,-0.026622,-0.00654939,0.0,0 STARLINK-3302,1 50842U 22001AR  22069.91668981 -.00654939  00000-0 -26622-1 0  9998,2 50842  53.2176 253.0875 0001946  37.4163 132.4200 15.26551368  3668,6864.268,94.33,487.469,484.797,0.0
50842.0,STARLINK-3302,PAYLOAD,2022-03-11 14:00:01,15.25620409,0.0001966,53.2177,250.0121,37.4459,196.958,-0.027519,-0.00657919,0.0,0 STARLINK-3302,1 50842U 22001AR  22070.58334491 -.00657919  00000-0 -27519-1 0  9996,2 50842  53.2177 250.0121 0001966  37.4459 196.9580 15.25620409  3635,6867.06,94.388,490.275,487.575,0.0
50842.0,STARLINK-3302,PAYLOAD,2022-03-11 22:00:00,15.25151736,0.0001909,53.2176,248.4781,37.8418,228.0366,-0.027751,-0.00654392,0.0,0 STARLINK-3302,1 50842U 22001AR  22070.91667824 -.00654392  00000-0 -27751-1 0  9992,2 50842  53.2176 248.4781 0001909  37.8418 228.0366 15.25151736 11307,6868.467,94.417,491.643,489.021,0.0
50842.0,STARLINK-3302,PAYLOAD,2022-03-12 14:00:01,15.24221859,0.0001845,53.2178,245.4092,35.7645,291.381,-0.028793,-0.00659802,0.0,0 STARLINK-3302,1 50842U 22001AR  22071.58334491 -.00659802  00000-0 -28793-1 0  9995,2 50842  53.2178 245.4092 0001845  35.7645 291.3810 15.24221859  3658,6871.26,94.474,494.393,491.857,0.0
50842.0,STARLINK-3302,PAYLOAD,2022-03-12 22:00:00,15.23751252,0.0001418,53.2175,243.8786,33.231,323.7078,-0.02888,-0.0065298999999999,0.0,0 STARLINK-3302,1 50842U 22001AR  22071.91667824 -.00652990  00000-0 -28880-1 0  9999,2 50842  53.2175 243.8786 0001418  33.2310 323.7078 15.23751252 11463,6872.675,94.504,495.514,493.565,0.0
50842.0,STARLINK-3302,PAYLOAD,2022-03-13 14:00:01,15.22822549,0.0001669,53.2177,240.8166,39.9138,14.9279,-0.030075,-0.00660843,0.0,0 STARLINK-3302,1 50842U 22001AR  22072.58334491 -.00660843  00000-0 -30075-1 0  9999,2 50842  53.2177 240.8166 0001669  39.9138  14.9279 15.22822549  3665,6875.469,94.561,498.481,496.186,0.0
50842.0,STARLINK-3302,PAYLOAD,2022-03-13 20:00:01,15.22472002,0.0001419,53.2176,239.6711,57.1572,288.8195,-0.030331,-0.00659621,0.0,0 STARLINK-3302,1 50842U 22001AR  22072.83334491 -.00659621  00000-0 -30331-1 0  9994,2 50842  53.2176 239.6711 0001419  57.1572 288.8195 15.22472002 11600,6876.524,94.583,499.365,497.413,0.0
50842.0,STARLINK-3302,PAYLOAD,2022-03-13 22:00:01,15.22351823,0.0001469,53.2174,239.289,51.113,31.9037,-0.030151,-0.00653817,0.0,0 STARLINK-3302,1 50842U 22001AR  22072.91668981 -.00653817  00000-0 -30151-1 0  9998,2 50842  53.2174 239.2890 0001469  51.1130  31.9037 15.22351823  3645,6876.886,94.59,499.761,497.741,0.0
50842.0,STARLINK-3302,PAYLOAD,2022-03-14 14:00:01,15.21421687,0.0001877,53.2176,236.2335,38.0213,99.5349,-0.031263,-0.00659154,0.0,0 STARLINK-3302,1 50842U 22001AR  22073.58335648 -.00659154  00000-0 -31263-1 0  9998,2 50842  53.2176 236.2335 0001877  38.0213  99.5349 15.21421687  3637,6879.688,94.648,502.845,500.262,0.0
50842.0,STARLINK-3302,PAYLOAD,2022-03-14 20:00:01,15.21072315,0.0001537,53.2176,235.0905,51.6616,15.7044,-0.03163,-0.00659952,0.0,0 STARLINK-3302,1 50842U 22001AR  22073.83334491 -.00659952  00000-0 -31630-1 0  9995,2 50842  53.2176 235.0905 0001537  51.6616  15.7044 15.21072315  3618,6880.7419999999975,94.67,503.664,501.549,0.0
50842.0,STARLINK-3302,PAYLOAD,2022-03-14 22:00:00,15.20951278,0.0001592,53.2173,234.7091,52.13399999999999,111.7883,-0.031344,-0.00652249,0.0,0 STARLINK-3302,1 50842U 22001AR  22073.91667824 -.00652249  00000-0 -31344-1 0  9997,2 50842  53.2173 234.7091 0001592  52.1340 111.7883 15.20951278 11764,6881.107,94.678,504.067,501.876,0.0
50842.0,STARLINK-3302,PAYLOAD,2022-03-15 02:00:01,15.20722691,0.0001385999999999,53.2173,233.9457,55.32100000000001,301.6046,-0.031995,-0.0066066,0.0,0 STARLINK-3302,1 50842U 22001AR  22074.08334491 -.00660660  00000-0 -31995-1 0  9995,2 50842  53.2173 233.9457 0001386  55.3210 301.6046 15.20722691  3625,6881.795999999999,94.692,504.615,502.708,0.0
50842.0,STARLINK-3302,PAYLOAD,2022-03-15 22:00:00,15.19552798,0.0001557,53.2172,230.139,56.5048,183.3398,-0.032743,-0.00653855,0.0,0 STARLINK-3302,1 50842U 22001AR  22074.91667824 -.00653855  00000-0 -32743-1 0  9996,2 50842  53.2172 230.1390 0001557  56.5048 183.3398 15.19552798 11914,6885.328,94.765,508.265,506.121,0.0
50842.0,STARLINK-3302,PAYLOAD,2022-03-16 14:00:01,15.18621186,0.0001753,53.2175,227.097,43.29,244.367,-0.033797,-0.00663779,0.0,0 STARLINK-3302,1 50842U 22001AR  22075.58334491 -.00663779  00000-0 -33797-1 0  9997,2 50842  53.2175 227.0970 0001753  43.2900 244.3670 15.18621186  3632,6888.144,94.823,511.216,508.801,0.0
50842.0,STARLINK-3302,PAYLOAD,2022-03-16 20:00:01,15.1826953,0.000157,53.2175,225.9587,56.8266,158.1816,-0.033984,-0.00660852,0.0,0 STARLINK-3302,1 50842U 22001AR  22075.83334491 -.00660852  00000-0 -33984-1 0  9992,2 50842  53.2175 225.9587 0001570  56.8266 158.1816 15.18269530 12056,6889.206999999999,94.845,512.154,509.991,0.0
50842.0,STARLINK-3302,PAYLOAD,2022-03-17 14:00:01,15.17222169,0.000169,53.2175,222.5434,40.8306,314.3395,-0.035259,-0.00664952,0.0,0 STARLINK-3302,1 50842U 22001AR  22076.58334491 -.00664952  00000-0 -35259-1 0  9997,2 50842  53.2175 222.5434 0001690  40.8306 314.3395 15.17222169  3640,6892.377,94.91,515.4069999999998,513.078,0.0
50842.0,STARLINK-3302,PAYLOAD,2022-03-17 22:00:00,15.1675555,0.0001734,53.2172,221.0282,37.6433,338.9094,-0.035698,-0.00664303,0.0,0 STARLINK-3302,1 50842U 22001AR  22076.91667824 -.00664303  00000-0 -35698-1 0  9990,2 50842  53.2172 221.0282 0001734  37.6433 338.9094 15.16755550  3648,6893.791,94.939,516.851,514.461,0.0
50842.0,STARLINK-3302,PAYLOAD,2022-03-18 08:00:01,15.16173872,0.0001814,53.217,219.1338,39.4206,93.0726,-0.036457,-0.00667029,0.0,0 STARLINK-3302,1 50842U 22001AR  22077.33334491 -.00667029  00000-0 -36457-1 0  9990,2 50842  53.2170 219.1338 0001814  39.4206  93.0726 15.16173872 12285,6895.554,94.976,518.67,516.168,0.0
50842.0,STARLINK-3302,PAYLOAD,2022-03-18 14:00:01,15.15822536,0.0001827,53.2175,217.9997,36.6929,20.9448,-0.036732,-0.00665446,0.0,0 STARLINK-3302,1 50842U 22001AR  22077.58334491 -.00665446  00000-0 -36732-1 0  9994,2 50842  53.2175 217.9997 0001827  36.6929  20.9448 15.15822536  3649,6896.62,94.998,519.745,517.225,0.0
50842.0,STARLINK-3302,PAYLOAD,2022-03-18 22:00:00,15.15354938,0.0001445,53.2172,216.4876,53.1161,24.2228,-0.03707,-0.00662803,0.0,0 STARLINK-3302,1 50842U 22001AR  22077.91667824 -.00662803  00000-0 -37070-1 0  9990,2 50842  53.2172 216.4876 0001445  53.1161  24.2228 15.15354938  3643,6898.038000000001,95.027,520.9,518.906,0.0
50842.0,STARLINK-3302,PAYLOAD,2022-03-19 14:00:01,15.14422038,0.0001891,53.2173,213.4656,38.8138,76.2463,-0.038164,-0.0066444,0.0,0 STARLINK-3302,1 50842U 22001AR  22078.58334491 -.00664440  00000-0 -38164-1 0  9999,2 50842  53.2173 213.4656 0001891  38.8138  76.2463 15.14422038 12471,6900.871,95.086,524.0409999999998,521.431,0.0
50842.0,STARLINK-3302,PAYLOAD,2022-03-19 22:00:01,15.13954904,0.0001622,53.2172,211.9566,49.7819,83.3605,-0.038556,-0.00662541,0.0,0 STARLINK-3302,1 50842U 22001AR  22078.91668981 -.00662541  00000-0 -38556-1 0  9995,2 50842  53.2172 211.9566 0001622  49.7819  83.3605 15.13954904  3661,6902.29,95.115,525.275,523.036,0.0
50842.0,STARLINK-3302,PAYLOAD,2022-03-20 14:00:01,15.13021257,0.0001956,53.2173,208.9413,39.9485,127.4883,-0.039598,-0.00662776,0.0,0 STARLINK-3302,1 50842U 22001AR  22079.58334491 -.00662776  00000-0 -39598-1 0  9992,2 50842  53.2173 208.9413 0001956  39.9485 127.4883 15.13021257  3630,6905.129,95.174,528.345,525.644,0.0
50842.0,STARLINK-3302,PAYLOAD,2022-03-20 22:00:01,15.12555634,0.000162,53.2172,207.4354,53.8735,129.9631,-0.040173,-0.00663572,0.0,0 STARLINK-3302,1 50842U 22001AR  22079.91668981 -.00663572  00000-0 -40173-1 0  9999,2 50842  53.2172 207.4354 0001620  53.8735 129.9631 15.12555634 12670,6906.545999999999,95.203,529.53,527.293,0.0
50842.0,STARLINK-3302,PAYLOAD,2022-03-21 14:00:01,15.1162099,0.0002007,53.2173,204.4268,39.5979,175.1695,-0.041118,-0.00661796,0.0,0 STARLINK-3302,1 50842U 22001AR  22080.58334491 -.00661796  00000-0 -41118-1 0  9996,2 50842  53.2173 204.4268 0002007  39.5979 175.1695 15.11620990  3628,6909.393,95.262,532.645,529.871,0.0
50842.0,STARLINK-3302,PAYLOAD,2022-03-21 22:00:00,15.1115671,0.0001715,53.2172,202.924,49.0597,180.3623,-0.041881,-0.0066515,0.0,0 STARLINK-3302,1 50842U 22001AR  22080.91667824 -.00665150  00000-0 -41881-1 0  9997,2 50842  53.2172 202.9240 0001715  49.0597 180.3623 15.11156710  3631,6910.808000000001,95.291,533.8580000000002,531.488,0.0
50842.0,STARLINK-3302,PAYLOAD,2022-03-22 06:00:00,15.1056687,0.0002063,53.216,201.4217,43.3264,200.2683,-0.032464,-0.00510543,0.0,0 STARLINK-3302,1 50842U 22001AR  22081.25001157 -.00510543  00000-0 -32464-1 0  9998,2 50842  53.2160 201.4217 0002063  43.3264 200.2683 15.10566870 12887,6912.607,95.328,535.898,533.0459999999998,0.0
50842.0,STARLINK-3302,PAYLOAD,2022-03-22 14:00:01,15.10221505,0.0001983,53.2173,199.922,39.218,217.834,-0.042768,-0.00662048,0.0,0 STARLINK-3302,1 50842U 22001AR  22081.58334491 -.00662048  00000-0 -42768-1 0  9990,2 50842  53.2173 199.9220 0001983  39.2180 217.8340 15.10221505 12930,6913.661,95.35,536.8969999999998,534.155,0.0
